GLOBALSTAR M024         
1 25883U 99043A   25176.95740833 -.00000109  00000+0 -15673-2 0  9996
2 25883  52.0052   0.8337 0002189 106.7609  63.4890 11.10168294115833
GLOBALSTAR M027         
1 25884U 99043B   25176.91369766 -.00000062  00000+0  62852-4 0  9995
2 25884  52.0217  79.1612 0021965   6.5536 353.5541 11.04372038142204
GLOBALSTAR M054         
1 25885U 99043C   25176.36265120 -.00000023  00000+0  12278-2 0  9996
2 25885  52.0103 206.3192 0005953 191.7356 181.3185 11.39224620119983
GLOBALSTAR M053         
1 25886U 99043D   25176.69780043 -.00000090  00000+0 -61101-3 0  9994
2 25886  51.9950 153.0799 0002888  90.7116  79.7766 11.27665841120404
GLOBALSTAR M058         
1 25907U 99049A   25176.43465684 -.00000099  00000+0 -20064-3 0  9999
2 25907  51.9950  87.1510 0001834 299.3597  60.7054 11.93200027542521
GLOBALSTAR M050         
1 25908U 99049B   25176.51786167 -.00000056  00000+0  36172-3 0  9990
2 25908  51.9991  93.9828 0009699  47.3138 124.0200 12.07454406149194
GLOBALSTAR M033         
1 25909U 99049C   25176.70480834 -.00000032  00000+0  57231-3 0  9997
2 25909  51.9929 324.7135 0012817 280.2208  79.7194 12.20293336536785
GLOBALSTAR M055         
1 25910U 99049D   25176.71213568 -.00000073  00000+0  18151-3 0  9991
2 25910  52.0042 335.0261 0007663 145.2215 214.9139 12.29429099169332
